{
  "type": "FeatureCollection",
  "features": [
    {
      "type": "Feature",
      "properties": {
        "norad_id": 35442,
        "name": "COSMOS 2251 DEB",
        "group": "cosmos-2251-debris",
        "lat": -65.12144399315423,
        "lon": -42.06050403900183,
        "alt_km": 624.7839851946792,
        "timestamp": "2025-12-12T09:49:09.128153+00:00",
        "meta_object_name": "COSMOS 2251 DEB",
        "meta_object_id": "1993-036AKL",
        "meta_epoch": "2025-12-10T17:52:23.497824",
        "meta_mean_motion": 14.84307809,
        "meta_eccentricity": 0.00039175,
        "meta_inclination": 74.0276,
        "meta_ra_of_asc_node": 103.0968,
        "meta_arg_of_pericenter": 96.7056,
        "meta_mean_anomaly": 263.4569,
        "meta_ephemeris_type": 0,
        "meta_classification_type": "U",
        "meta_norad_cat_id": 35442,
        "meta_element_set_no": 999,
        "meta_rev_at_epoch": 87323,
        "meta_bstar": 0.0043727584,
        "meta_mean_motion_dot": 0.00036855,
        "meta_mean_motion_ddot": 0,
        "tle_line1": "1 35442U 93036AKL 25344.74471641  .00036855  00000+0  43728-2 0  9993",
        "tle_line2": "2 35442  74.0276 103.0968 0003917  96.7056 263.4569 14.84307809873238"
      },
      "geometry": {
        "type": "Point",
        "coordinates": [
          -42.06050403900183,
          -65.12144399315423
        ]
      }
    },
    {
      "type": "Feature",
      "properties": {
        "norad_id": 35443,
        "name": "COSMOS 2251 DEB",
        "group": "cosmos-2251-debris",
        "lat": -73.92424973497033,
        "lon": -122.52549905855899,
        "alt_km": 630.4051182952871,
        "timestamp": "2025-12-12T09:49:09.128164+00:00",
        "meta_object_name": "COSMOS 2251 DEB",
        "meta_object_id": "1993-036AKM",
        "meta_epoch": "2025-12-08T06:44:44.274336",
        "meta_mean_motion": 14.96147372,
        "meta_eccentricity": 0.00733753,
        "meta_inclination": 73.988,
        "meta_ra_of_asc_node": 340.6328,
        "meta_arg_of_pericenter": 123.8306,
        "meta_mean_anomaly": 236.9892,
        "meta_ephemeris_type": 0,
        "meta_classification_type": "U",
        "meta_norad_cat_id": 35443,
        "meta_element_set_no": 999,
        "meta_rev_at_epoch": 86811,
        "meta_bstar": 0.0035457848,
        "meta_mean_motion_dot": 0.00042371,
        "meta_mean_motion_ddot": 0,
        "tle_line1": "1 35443U 93036AKM 25342.28106799  .00042371  00000+0  35458-2 0  9991",
        "tle_line2": "2 35443  73.9880 340.6328 0073375 123.8306 236.9892 14.96147372868117"
      },
      "geometry": {
        "type": "Point",
        "coordinates": [
          -122.52549905855899,
          -73.92424973497033
        ]
      }
    },
    {
      "type": "Feature",
      "properties": {
        "norad_id": 35445,
        "name": "COSMOS 2251 DEB",
        "group": "cosmos-2251-debris",
        "lat": -12.796610816518221,
        "lon": -63.089645031800245,
        "alt_km": 622.7287401354852,
        "timestamp": "2025-12-12T09:49:09.128174+00:00",
        "meta_object_name": "COSMOS 2251 DEB",
        "meta_object_id": "1993-036AKP",
        "meta_epoch": "2025-12-09T14:24:43.017696",
        "meta_mean_motion": 14.5903749,
        "meta_eccentricity": 0.01436968,
        "meta_inclination": 74.0376,
        "meta_ra_of_asc_node": 305.9887,
        "meta_arg_of_pericenter": 33.7492,
        "meta_mean_anomaly": 327.2717,
        "meta_ephemeris_type": 0,
        "meta_classification_type": "U",
        "meta_norad_cat_id": 35445,
        "meta_element_set_no": 999,
        "meta_rev_at_epoch": 87283,
        "meta_bstar": 0.0029213682,
        "meta_mean_motion_dot": 0.00015858,
        "meta_mean_motion_ddot": 0,
        "tle_line1": "1 35445U 93036AKP 25343.60049789  .00015858  00000+0  29214-2 0  9998",
        "tle_line2": "2 35445  74.0376 305.9887 0143696  33.7492 327.2717 14.59037490872836"
      },
      "geometry": {
        "type": "Point",
        "coordinates": [
          -63.089645031800245,
          -12.796610816518221
        ]
      }
    },
    {
      "type": "Feature",
      "properties": {
        "norad_id": 35446,
        "name": "COSMOS 2251 DEB",
        "group": "cosmos-2251-debris",
        "lat": 27.60969900746302,
        "lon": -32.58858057284991,
        "alt_km": 673.6718961891766,
        "timestamp": "2025-12-12T09:49:09.128185+00:00",
        "meta_object_name": "COSMOS 2251 DEB",
        "meta_object_id": "1993-036AKQ",
        "meta_epoch": "2025-12-11T08:55:45.715296",
        "meta_mean_motion": 14.54627473,
        "meta_eccentricity": 0.0074428,
        "meta_inclination": 74.0469,
        "meta_ra_of_asc_node": 320.7675,
        "meta_arg_of_pericenter": 79.324,
        "meta_mean_anomaly": 281.6293,
        "meta_ephemeris_type": 0,
        "meta_classification_type": "U",
        "meta_norad_cat_id": 35446,
        "meta_element_set_no": 999,
        "meta_rev_at_epoch": 87988,
        "meta_bstar": 0.00019475803,
        "meta_mean_motion_dot": 8.34e-06,
        "meta_mean_motion_ddot": 0,
        "tle_line1": "1 35446U 93036AKQ 25345.37205689  .00000834  00000+0  19476-3 0  9996",
        "tle_line2": "2 35446  74.0469 320.7675 0074428  79.3240 281.6293 14.54627473879888"
      },
      "geometry": {
        "type": "Point",
        "coordinates": [
          -32.58858057284991,
          27.60969900746302
        ]
      }
    },
    {
      "type": "Feature",
      "properties": {
        "norad_id": 35448,
        "name": "COSMOS 2251 DEB",
        "group": "cosmos-2251-debris",
        "lat": -63.572604508970954,
        "lon": -54.33969416728612,
        "alt_km": 711.1903217617946,
        "timestamp": "2025-12-12T09:49:09.128196+00:00",
        "meta_object_name": "COSMOS 2251 DEB",
        "meta_object_id": "1993-036AKS",
        "meta_epoch": "2025-12-10T08:47:56.216832",
        "meta_mean_motion": 14.54228098,
        "meta_eccentricity": 0.00112894,
        "meta_inclination": 73.9047,
        "meta_ra_of_asc_node": 94.0334,
        "meta_arg_of_pericenter": 275.0476,
        "meta_mean_anomaly": 84.9397,
        "meta_ephemeris_type": 0,
        "meta_classification_type": "U",
        "meta_norad_cat_id": 35448,
        "meta_element_set_no": 999,
        "meta_rev_at_epoch": 87300,
        "meta_bstar": 0.0017680257,
        "meta_mean_motion_dot": 7.475e-05,
        "meta_mean_motion_ddot": 0,
        "tle_line1": "1 35448U 93036AKS 25344.36662288  .00007475  00000+0  17680-2 0  9990",
        "tle_line2": "2 35448  73.9047  94.0334 0011289 275.0476  84.9397 14.54228098873002"
      },
      "geometry": {
        "type": "Point",
        "coordinates": [
          -54.33969416728612,
          -63.572604508970954
        ]
      }
    },
    {
      "type": "Feature",
      "properties": {
        "norad_id": 35451,
        "name": "COSMOS 2251 DEB",
        "group": "cosmos-2251-debris",
        "lat": 6.039720011350101,
        "lon": -78.36481918723901,
        "alt_km": 489.1044557171281,
        "timestamp": "2025-12-12T09:49:09.128206+00:00",
        "meta_object_name": "COSMOS 2251 DEB",
        "meta_object_id": "1993-036AKV",
        "meta_epoch": "2025-12-11T14:18:02.259072",
        "meta_mean_motion": 15.35417898,
        "meta_eccentricity": 0.00409084,
        "meta_inclination": 73.9313,
        "meta_ra_of_asc_node": 105.1387,
        "meta_arg_of_pericenter": 351.3523,
        "meta_mean_anomaly": 8.6971,
        "meta_ephemeris_type": 0,
        "meta_classification_type": "U",
        "meta_norad_cat_id": 35451,
        "meta_element_set_no": 999,
        "meta_rev_at_epoch": 67388,
        "meta_bstar": 0.0019731642,
        "meta_mean_motion_dot": 0.00070398,
        "meta_mean_motion_ddot": 0,
        "tle_line1": "1 35451U 93036AKV 25345.59585948  .00070398  00000+0  19732-2 0  9991",
        "tle_line2": "2 35451  73.9313 105.1387 0040908 351.3523   8.6971 15.35417898673888"
      },
      "geometry": {
        "type": "Point",
        "coordinates": [
          -78.36481918723901,
          6.039720011350101
        ]
      }
    },
    {
      "type": "Feature",
      "properties": {
        "norad_id": 35453,
        "name": "COSMOS 2251 DEB",
        "group": "cosmos-2251-debris",
        "lat": -37.17124022666138,
        "lon": 8.434781608658367,
        "alt_km": 818.3593257247257,
        "timestamp": "2025-12-12T09:49:09.128216+00:00",
        "meta_object_name": "COSMOS 2251 DEB",
        "meta_object_id": "1993-036AKX",
        "meta_epoch": "2025-12-02T12:53:58.122528",
        "meta_mean_motion": 14.3790654,
        "meta_eccentricity": 0.00680216,
        "meta_inclination": 74.0102,
        "meta_ra_of_asc_node": 39.1945,
        "meta_arg_of_pericenter": 175.6131,
        "meta_mean_anomaly": 184.5634,
        "meta_ephemeris_type": 0,
        "meta_classification_type": "U",
        "meta_norad_cat_id": 35453,
        "meta_element_set_no": 999,
        "meta_rev_at_epoch": 86072,
        "meta_bstar": 0.00098540606,
        "meta_mean_motion_dot": 3.03e-05,
        "meta_mean_motion_ddot": 0,
        "tle_line1": "1 35453U 93036AKX 25336.53747827  .00003030  00000+0  98541-3 0  9998",
        "tle_line2": "2 35453  74.0102  39.1945 0068021 175.6131 184.5634 14.37906540860721"
      },
      "geometry": {
        "type": "Point",
        "coordinates": [
          8.434781608658367,
          -37.17124022666138
        ]
      }
    }
  ]
}